{
  "norad_id": 68883,
  "name": "KUIPER-00502",
  "history": [
    {
      "epoch": "2026-05-02T10:00:03.000096Z",
      "apogee_km": 458.50272618407325,
      "perigee_km": 450.16847610519744,
      "latitude_deg": 25.61772268309714,
      "longitude_deg": -108.61764250057306,
      "height_km": 451.64808761415645,
      "semi_major_axis_km": 6832.4726011446355,
      "eccentricity": 0.0006099,
      "inclination_deg": 51.8786,
      "raan_deg": 103.7034,
      "arg_perigee_deg": 116.7972,
      "mean_anomaly_deg": 29.9319,
      "mean_motion_rev_day": 15.37219602
    }
  ]
}