{"fetched_at":"2026-05-03T06:27:58Z","count":17151,"tles":[{"name":"KUIPER-00502","line1":"1 68883U 26095V   26122.41670139  .00069022  00000+0  18570-2 0  9990","line2":"2 68883  51.8786 103.7034 0006099 116.7972  29.9319 15.37219602  1409","category":"Other"}]}